ORBCOMM-X [-]           
1 21576U 91050C   23343.17505647  .00000298  00000+0  10347-3 0  9992
2 21576  98.4162  48.2809 0004749  72.3903 287.7805 14.42286292702165
ORBCOMM FM01 [-]        
1 23545U 95017A   23342.46581604  .00002785  00000+0  39994-3 0  9997
2 23545  69.9693   7.6260 0001909  46.3689 313.7617 14.77574925529958
ORBCOMM FM02 [-]        
1 23546U 95017B   23342.52095712  .00003908  00000+0  56204-3 0  9996
2 23546  69.9715  26.6452 0004222  50.7505 309.4017 14.77163118529612
ORBCOMM FM08 [-]        
1 25112U 97084A   23342.46112751  .00001138  00000+0  38964-3 0  9995
2 25112  45.0126 151.1237 0006643 314.8377  45.1932 14.41666013360929
ORBCOMM FM10 [-]        
1 25113U 97084B   23342.46006099  .00001166  00000+0  39865-3 0  9995
2 25113  45.0140 152.8792 0004697 280.6940  79.3380 14.41600869536077
ORBCOMM FM11 [+]        
1 25114U 97084C   23341.63477074  .00001164  00000+0  39880-3 0  9994
2 25114  45.0123 156.7647 0005396 279.8322  80.1918 14.41487379360927
ORBCOMM FM12 [-]        
1 25115U 97084D   23342.56189205  .00001090  00000+0  37646-3 0  9990
2 25115  45.0131 151.9977 0004424 282.7547  77.2808 14.41470228360855
ORBCOMM FM09 [-]        
1 25116U 97084E   23342.56972932  .00001033  00000+0  35923-3 0  9991
2 25116  45.0131 152.6046 0005779 266.8750  93.1439 14.41440309361062
